{
  "type": "FeatureCollection",
  "features": [
    {
      "type": "Feature",
      "properties": {
        "norad_id": 35202,
        "name": "FENGYUN 1C DEB",
        "group": "fengyun-1c-debris",
        "lat": -33.69773367739465,
        "lon": -161.92443012687988,
        "alt_km": 1411.668769971283,
        "timestamp": "2025-12-05T18:53:13.569468+00:00",
        "meta_object_name": "FENGYUN 1C DEB",
        "meta_object_id": "1999-025DPJ",
        "meta_epoch": "2025-11-30T10:05:49.025184",
        "meta_mean_motion": 13.34730307,
        "meta_eccentricity": 0.03739167,
        "meta_inclination": 100.0942,
        "meta_ra_of_asc_node": 19.5924,
        "meta_arg_of_pericenter": 37.6604,
        "meta_mean_anomaly": 325.0083,
        "meta_ephemeris_type": 0,
        "meta_classification_type": "U",
        "meta_norad_cat_id": 35202,
        "meta_element_set_no": 999,
        "meta_rev_at_epoch": 56812,
        "meta_bstar": 0.00081043758,
        "meta_mean_motion_dot": 5.61e-06,
        "meta_mean_motion_ddot": 0,
        "tle_line1": "1 35202U 99025DPJ 25334.42070631  .00000561  00000+0  81044-3 0  9998",
        "tle_line2": "2 35202 100.0942  19.5924 0373916  37.6604 325.0083 13.34730307568129"
      },
      "geometry": {
        "type": "Point",
        "coordinates": [
          -161.92443012687988,
          -33.69773367739465
        ]
      }
    },
    {
      "type": "Feature",
      "properties": {
        "norad_id": 35203,
        "name": "FENGYUN 1C DEB",
        "group": "fengyun-1c-debris",
        "lat": 35.54912038170412,
        "lon": 134.4176832073557,
        "alt_km": 822.5901872627173,
        "timestamp": "2025-12-05T18:53:13.569478+00:00",
        "meta_object_name": "FENGYUN 1C DEB",
        "meta_object_id": "1999-025DPK",
        "meta_epoch": "2025-12-03T15:27:54.802656",
        "meta_mean_motion": 13.26388457,
        "meta_eccentricity": 0.05116747,
        "meta_inclination": 102.0734,
        "meta_ra_of_asc_node": 303.1231,
        "meta_arg_of_pericenter": 179.2768,
        "meta_mean_anomaly": 180.9196,
        "meta_ephemeris_type": 0,
        "meta_classification_type": "U",
        "meta_norad_cat_id": 35203,
        "meta_element_set_no": 999,
        "meta_rev_at_epoch": 59530,
        "meta_bstar": 0.0023783479,
        "meta_mean_motion_dot": 2.085e-05,
        "meta_mean_motion_ddot": 0,
        "tle_line1": "1 35203U 99025DPK 25337.64438429  .00002085  00000+0  23783-2 0  9997",
        "tle_line2": "2 35203 102.0734 303.1231 0511674 179.2768 180.9196 13.26388457595302"
      },
      "geometry": {
        "type": "Point",
        "coordinates": [
          134.4176832073557,
          35.54912038170412
        ]
      }
    },
    {
      "type": "Feature",
      "properties": {
        "norad_id": 35204,
        "name": "FENGYUN 1C DEB",
        "group": "fengyun-1c-debris",
        "lat": -32.64541064338072,
        "lon": -17.96992549984586,
        "alt_km": 754.6651861196387,
        "timestamp": "2025-12-05T18:53:13.569488+00:00",
        "meta_object_name": "FENGYUN 1C DEB",
        "meta_object_id": "1999-025DPL",
        "meta_epoch": "2025-12-03T00:17:34.201824",
        "meta_mean_motion": 14.4851708,
        "meta_eccentricity": 0.00393907,
        "meta_inclination": 99.0057,
        "meta_ra_of_asc_node": 164.9047,
        "meta_arg_of_pericenter": 352.2699,
        "meta_mean_anomaly": 159.62,
        "meta_ephemeris_type": 0,
        "meta_classification_type": "U",
        "meta_norad_cat_id": 35204,
        "meta_element_set_no": 999,
        "meta_rev_at_epoch": 90789,
        "meta_bstar": 0.0029447199,
        "meta_mean_motion_dot": 0.00011129,
        "meta_mean_motion_ddot": 0,
        "tle_line1": "1 35204U 99025DPL 25337.01220141  .00011129  00000+0  29447-2 0  9991",
        "tle_line2": "2 35204  99.0057 164.9047 0039390 352.2699 159.6200 14.48517080907891"
      },
      "geometry": {
        "type": "Point",
        "coordinates": [
          -17.96992549984586,
          -32.64541064338072
        ]
      }
    },
    {
      "type": "Feature",
      "properties": {
        "norad_id": 35207,
        "name": "FENGYUN 1C DEB",
        "group": "fengyun-1c-debris",
        "lat": -38.76358958392958,
        "lon": 84.88539436368663,
        "alt_km": 687.3173080245879,
        "timestamp": "2025-12-05T18:53:13.569522+00:00",
        "meta_object_name": "FENGYUN 1C DEB",
        "meta_object_id": "1999-025DPP",
        "meta_epoch": "2025-11-29T17:50:26.900160",
        "meta_mean_motion": 14.55080945,
        "meta_eccentricity": 0.0054743,
        "meta_inclination": 98.6905,
        "meta_ra_of_asc_node": 71.5483,
        "meta_arg_of_pericenter": 294.9923,
        "meta_mean_anomaly": 64.5593,
        "meta_ephemeris_type": 0,
        "meta_classification_type": "U",
        "meta_norad_cat_id": 35207,
        "meta_element_set_no": 999,
        "meta_rev_at_epoch": 64715,
        "meta_bstar": 0.0019605249,
        "meta_mean_motion_dot": 8.586e-05,
        "meta_mean_motion_ddot": 0,
        "tle_line1": "1 35207U 99025DPP 25333.74336690  .00008586  00000+0  19605-2 0  9995",
        "tle_line2": "2 35207  98.6905  71.5483 0054743 294.9923  64.5593 14.55080945647151"
      },
      "geometry": {
        "type": "Point",
        "coordinates": [
          84.88539436368663,
          -38.76358958392958
        ]
      }
    },
    {
      "type": "Feature",
      "properties": {
        "norad_id": 35208,
        "name": "FENGYUN 1C DEB",
        "group": "fengyun-1c-debris",
        "lat": -78.23627873559472,
        "lon": 130.33268278757683,
        "alt_km": 897.502564864616,
        "timestamp": "2025-12-05T18:53:13.569533+00:00",
        "meta_object_name": "FENGYUN 1C DEB",
        "meta_object_id": "1999-025DPQ",
        "meta_epoch": "2025-11-27T19:11:53.318688",
        "meta_mean_motion": 13.99599013,
        "meta_eccentricity": 0.01006373,
        "meta_inclination": 98.9056,
        "meta_ra_of_asc_node": 351.4058,
        "meta_arg_of_pericenter": 197.6504,
        "meta_mean_anomaly": 162.1154,
        "meta_ephemeris_type": 0,
        "meta_classification_type": "U",
        "meta_norad_cat_id": 35208,
        "meta_element_set_no": 999,
        "meta_rev_at_epoch": 90354,
        "meta_bstar": 0.00091687477,
        "meta_mean_motion_dot": 1.356e-05,
        "meta_mean_motion_ddot": 0,
        "tle_line1": "1 35208U 99025DPQ 25331.79992267  .00001356  00000+0  91687-3 0  9996",
        "tle_line2": "2 35208  98.9056 351.4058 0100637 197.6504 162.1154 13.99599013903542"
      },
      "geometry": {
        "type": "Point",
        "coordinates": [
          130.33268278757683,
          -78.23627873559472
        ]
      }
    },
    {
      "type": "Feature",
      "properties": {
        "norad_id": 35210,
        "name": "FENGYUN 1C DEB",
        "group": "fengyun-1c-debris",
        "lat": 70.11199265487471,
        "lon": -43.06218974934973,
        "alt_km": 808.3994307025941,
        "timestamp": "2025-12-05T18:53:13.569542+00:00",
        "meta_object_name": "FENGYUN 1C DEB",
        "meta_object_id": "1999-025DPS",
        "meta_epoch": "2025-12-03T11:59:47.719104",
        "meta_mean_motion": 14.3342429,
        "meta_eccentricity": 0.00494182,
        "meta_inclination": 99.0975,
        "meta_ra_of_asc_node": 340.8263,
        "meta_arg_of_pericenter": 266.3294,
        "meta_mean_anomaly": 250.1349,
        "meta_ephemeris_type": 0,
        "meta_classification_type": "U",
        "meta_norad_cat_id": 35210,
        "meta_element_set_no": 999,
        "meta_rev_at_epoch": 89990,
        "meta_bstar": 0.0034879848,
        "meta_mean_motion_dot": 9.724e-05,
        "meta_mean_motion_ddot": 0,
        "tle_line1": "1 35210U 99025DPS 25337.49985786  .00009724  00000+0  34880-2 0  9998",
        "tle_line2": "2 35210  99.0975 340.8263 0049418 266.3294 250.1349 14.33424290899907"
      },
      "geometry": {
        "type": "Point",
        "coordinates": [
          -43.06218974934973,
          70.11199265487471
        ]
      }
    },
    {
      "type": "Feature",
      "properties": {
        "norad_id": 35217,
        "name": "FENGYUN 1C DEB",
        "group": "fengyun-1c-debris",
        "lat": 43.98334481809677,
        "lon": -118.21172393253758,
        "alt_km": 1047.3210967723808,
        "timestamp": "2025-12-05T18:53:13.569553+00:00",
        "meta_object_name": "FENGYUN 1C DEB",
        "meta_object_id": "1999-025DPZ",
        "meta_epoch": "2025-11-30T00:41:53.658528",
        "meta_mean_motion": 13.57395411,
        "meta_eccentricity": 0.03039914,
        "meta_inclination": 101.8745,
        "meta_ra_of_asc_node": 246.5595,
        "meta_arg_of_pericenter": 325.2799,
        "meta_mean_anomaly": 32.8819,
        "meta_ephemeris_type": 0,
        "meta_classification_type": "U",
        "meta_norad_cat_id": 35217,
        "meta_element_set_no": 999,
        "meta_rev_at_epoch": 61047,
        "meta_bstar": 0.0036509681,
        "meta_mean_motion_dot": 3.466e-05,
        "meta_mean_motion_ddot": 0,
        "tle_line1": "1 35217U 99025DPZ 25334.02909327  .00003466  00000+0  36510-2 0  9997",
        "tle_line2": "2 35217 101.8745 246.5595 0303991 325.2799  32.8819 13.57395411610472"
      },
      "geometry": {
        "type": "Point",
        "coordinates": [
          -118.21172393253758,
          43.98334481809677
        ]
      }
    }
  ]
}